LEMUR-2-HUBBLE-4        
1 64565U 25135AP  26194.86837676  .00001055  00000+0  10517-3 0  9992
2 64565  97.7718 308.4649 0002566 165.5181 194.6112 14.93683552 57852
LEMUR-2-SEJONG-2        
1 64586U 25135BL  26195.17874624  .00002145  00000+0  19196-3 0  9997
2 64586  97.7706 310.0207 0003894 223.7088 136.3826 14.96907030 57981
LEMUR-2-HUBBLE-5        
1 64840U 25135BT  26194.87768044  .00000925  00000+0  91646-4 0  9999
2 64840  97.7739 309.1417 0004246 240.7379 119.3417 14.94211614 57897
LEMUR-2-KARENDARRELL    
1 64841U 25135BU  26194.86273313  .00004386  00000+0  35249-3 0  9990
2 64841  97.7713 311.0352 0012325 108.8027 251.4535 15.00488219 58010
LEMUR-2-LUCILLE-ROSE    
1 65403U 25135BV  26194.56942644  .00003591  00000+0  28939-3 0  9997
2 65403  97.7706 310.7769 0014681 193.9631 166.1189 15.00477141 52594
OTTER SDM               
1 66678U 25276N   26195.17573470  .00003505  00000+0  16568-3 0  9993
2 66678  97.4208 268.2073 0004268 258.7712 101.3043 15.20049880 34517
LEMUR-2-STAS-GORBUK     
1 66686U 25276W   26195.19690049  .00002977  00000+0  14284-3 0  9991
2 66686  97.4241 268.2799 0003550 253.3006 106.7839 15.19652714 34514
LEMUR-2-TEODOR          
1 66768U 25276DG  26195.15100472  .00003426  00000+0  15612-3 0  9990
2 66768  97.4147 268.5054 0002250  89.0429 271.1064 15.21330418 34543
LEMUR-2-LAILA           
1 66776U 25276DQ  26195.18672459  .00003079  00000+0  13970-3 0  9990
2 66776  97.4170 268.6786 0002891  95.5608 264.5957 15.21556874 34557
LEMUR-2-CELIJO-SB-PK    
1 66781U 25276DW  26195.18444205  .00002764  00000+0  22511-3 0  9993
2 66781  97.5200 265.0710 0007048  66.7981 293.3984 15.00277827 26678
LEMUR-2-FINNIAN         
1 66782U 25276DX  26194.75486397  .00001614  00000+0  13230-3 0  9995
2 66782  97.5311 264.9238 0008117   7.7708 352.3641 15.00606139 23984
LEMUR-2-STARLIGHT       
1 66783U 25276DY  26195.13467347  .00003885  00000+0  32171-3 0  9990
2 66783  97.5234 264.8524 0014765  50.4955 309.7571 14.99346444 34236
LEMUR-2-TARTIFLETTE     
1 66784U 25276DZ  26195.19980088  .00003454  00000+0  28677-3 0  9997
2 66784  97.5236 264.9231 0013889  58.5182 301.7397 14.99332700 34241
LEMUR-2-VUKASIN         
1 66785U 25276EA  26195.17095862  .00002700  00000+0  21864-3 0  9997
2 66785  97.5233 265.2523 0003249  57.2835 302.8702 15.00541316 34191
LEMUR-2-HOTSPUR-TOM     
1 66786U 25276EB  26195.19413778  .00002981  00000+0  24874-3 0  9995
2 66786  97.5222 264.8922 0013818  49.6288 310.6140 14.99234912 34177
